METHANESAT              
1 59101U 24043D   25297.89900971  .00005503  00000+0  49134-3 0  9993
2 59101  97.8178  63.5208 0012024  78.9627 281.2946 14.96298551 89447
GOSAT-GW (IBUKI GW)     
1 64694U 25141A   25297.82852065  .00001493  00000+0  27151-3 0  9998
2 64694  98.0351 234.2467 0001428  85.2267 274.9101 14.67566952 17328
GHGSAT-C1               
1 46278U 20061G   25298.26246703  .00028526  00000+0  41250-3 0  9999
2 46278  97.2370  13.1760 0002333 157.0853 203.0506 15.55885645286773
GHGSAT-C12              
1 64529U 25135B   25298.32060071  .00006068  00000+0  30107-3 0  9990
2 64529  97.4591  50.8613 0003820 270.7684  89.3112 15.18069352 19164
GHGSAT-C13              
1 64548U 25135W   25298.30682927  .00004996  00000+0  24257-3 0  9996
2 64548  97.4616  51.0687 0001357 146.6147 213.5173 15.18921147 19173
GHGSAT-C2               
1 47509U 21006DA  25298.12353034  .00008689  00000+0  26494-3 0  9999
2 47509  97.2514 344.4524 0004004 302.0915  57.9939 15.34174727263766
GHGSAT-C3               
1 52737U 22057F   25298.31176014  .00010654  00000+0  36547-3 0  9992
2 52737  97.6310  71.3372 0005776 226.2125 133.8638 15.30342263189560
GHGSAT-C4               
1 52746U 22057Q   25298.33056311  .00010436  00000+0  35808-3 0  9998
2 52746  97.6237  70.4230 0006267 210.5949 149.4927 15.30333529189577
GHGSAT-C5               
1 52744U 22057N   25298.34744708  .00010078  00000+0  34600-3 0  9992
2 52744  97.6397  72.6746 0006831 223.1540 136.9165 15.30322704189570
GHGSAT-C6               
1 56204U 23054AC  25298.26637956  .00017754  00000+0  37688-3 0  9999
2 56204  97.3167 200.0628 0009066 161.0293 199.1295 15.45051478142084
GHGSAT-C7               
1 56209U 23054AH  25298.27294131  .00016186  00000+0  35867-3 0  9994
2 56209  97.3127 199.4297 0009207 156.5407 203.6263 15.43798492142078
GHGSAT-C8               
1 56186U 23054J   25298.30494492  .00016551  00000+0  35155-3 0  9990
2 56186  97.3135 199.5493 0005799 172.8331 187.3002 15.45075407142074
SENTINEL-5P             
1 42969U 17064A   25298.27207535  .00000142  00000+0  88140-4 0  9996
2 42969  98.7700 237.3058 0001119  79.0125 281.1177 14.19498718416232
ENMAP                   
1 52159U 22033C   25298.30637527  .00000880  00000+0  13847-3 0  9992
2 52159  97.9773  18.9189 0001113  79.8337 280.2997 14.74957008192032
PRISMA                  
1 44072U 19015A   25298.30840356  .00001500  00000+0  18793-3 0  9994
2 44072  97.8747  11.4507 0001181 108.9678 251.1664 14.83681873357222
SENTINEL-2A             
1 40697U 15028A   25298.31958751  .00000242  00000+0  10884-3 0  9998
2 40697  98.5739  11.5323 0001126  92.7543 267.3769 14.30814552540141
SENTINEL-2B             
1 42063U 17013A   25298.31240154  .00000241  00000+0  10844-3 0  9999
2 42063  98.5674  11.4595 0000966  97.7898 262.3395 14.30820689451056
SENTINEL-2C             
1 60989U 24157A   25298.20765992  .00000221  00000+0  10095-3 0  9999
2 60989  98.5649  11.4143 0000935  94.7976 265.3314 14.30815621 59388
LANDSAT 8               
1 39084U 13008A   25298.31301289  .00000656  00000+0  15567-3 0  9992
2 39084  98.2125   7.0870 0001327  88.6188 271.5162 14.57099652663699
LANDSAT 9               
1 49260U 21088A   25298.21006702  .00000696  00000+0  16450-3 0  9993
2 49260  98.2146   7.0102 0001237  87.8971 272.2369 14.57125454216789
